LEMUR-2-GREENBERG       
1 42837U 17042N   26068.46200528  .00019778  00000+0  72539-3 0  9997
2 42837  97.3781 249.8007 0009157   4.0119 356.1192 15.27971352473146
STARLINK-35527          
1 66092U 25236G   26068.38276250  .00019631  00000+0  67299-3 0  9991
2 66092  53.1581 105.5807 0000990  91.5245 268.5869 15.30209333 22892
